STARLINK-3873           
1 52467U 22049S   26068.26757431 -.00000550  00000+0 -16498-4 0  9991
2 52467  53.2168  61.0150 0001338  91.4534 268.6611 15.08831710212183
LEMUR-2-ESPERANZA       
1 63352U 25061B   26068.87489603  .00006090  00000+0  34973-3 0  9993
2 63352  97.5568  45.1407 0016949 244.8770 115.0702 15.12770807 52576
